{
"type": "FeatureCollection",
"name": "Casca",
"crs": { "type": "name", "properties": { "name": "urn:ogc:def:crs:OGC:1.3:CRS84" } },
"features": [
{ "type": "Feature", "properties": { "Id": 0 }, "geometry": { "type": "MultiPolygon", "coordinates": [ [ [ [ -77.418472015309305, -9.407939362893842 ], [ -77.417812508790689, -9.409410007753593 ], [ -77.417227036878671, -9.409894369671292 ], [ -77.417273077058155, -9.411009002671562 ], [ -77.417109717905078, -9.411448226399273 ], [ -77.418133857421196, -9.412619253676098 ], [ -77.418886003932073, -9.413599604099545 ], [ -77.419894384330519, -9.414972326920463 ], [ -77.420927719684869, -9.41691937032482 ], [ -77.421285786970031, -9.418066855204017 ], [ -77.422423542442914, -9.419559247793302 ], [ -77.425115624955538, -9.423817809025309 ], [ -77.427614861650227, -9.427617712572214 ], [ -77.427930102384892, -9.43014824870346 ], [ -77.428122917824396, -9.432067195440595 ], [ -77.430611443993541, -9.438319711764393 ], [ -77.434735005688594, -9.443105286537673 ], [ -77.439032948203874, -9.447381292420914 ], [ -77.446095120720997, -9.456726303817504 ], [ -77.451301246048331, -9.461839369415031 ], [ -77.452611846338073, -9.466284302144459 ], [ -77.455835822637312, -9.466800563581614 ], [ -77.460178298626602, -9.468877348909473 ], [ -77.464550195031507, -9.472954931106187 ], [ -77.467876950044513, -9.477123747045027 ], [ -77.468573055107129, -9.48084384156698 ], [ -77.470836363408353, -9.484466130846783 ], [ -77.473219485039237, -9.487624476902795 ], [ -77.475290181672165, -9.490045079751781 ], [ -77.475921507576857, -9.491996479099157 ], [ -77.479046158841072, -9.495157272774975 ], [ -77.482552606516151, -9.497395220501517 ], [ -77.482741667129801, -9.498265846348488 ], [ -77.485158637680968, -9.498616060679694 ], [ -77.486420852787717, -9.498985587498964 ], [ -77.488761970173073, -9.500482732935041 ], [ -77.489024642160643, -9.503427143886654 ], [ -77.491855149843786, -9.505991709548084 ], [ -77.494006674587297, -9.507034408127709 ], [ -77.496134598460685, -9.507796076035788 ], [ -77.497659895518325, -9.50931264742735 ], [ -77.498848763720275, -9.509126182146247 ], [ -77.499548523899819, -9.509953741724814 ], [ -77.500943252114268, -9.51224350810628 ], [ -77.503666828567248, -9.512407982698733 ], [ -77.50464567822263, -9.51203207146807 ], [ -77.506279676573286, -9.512337772227625 ], [ -77.506568335849238, -9.511729672625108 ], [ -77.50846015246924, -9.511894086629923 ], [ -77.509469905100786, -9.51326555588372 ], [ -77.509497681461937, -9.514550067885295 ], [ -77.510821270820031, -9.514573119438069 ], [ -77.511792844268143, -9.51553557017229 ], [ -77.51351467108168, -9.516319002136186 ], [ -77.515497105544853, -9.516652091414301 ], [ -77.517103660537714, -9.5151831748056 ], [ -77.520005158198614, -9.512738004047549 ], [ -77.521113106907194, -9.510248663773382 ], [ -77.524581823268818, -9.508793831390108 ], [ -77.527681851325724, -9.507707661487359 ], [ -77.529016504401341, -9.505539814377983 ], [ -77.53098896808433, -9.504605239520401 ], [ -77.533646372107739, -9.504768040416366 ], [ -77.536405603862988, -9.505133625330416 ], [ -77.53696133986864, -9.504020804668869 ], [ -77.537775023258803, -9.502447661662075 ], [ -77.532852740665135, -9.49968671030831 ], [ -77.524122667389349, -9.498720572678224 ], [ -77.51525112817626, -9.494492790833533 ], [ -77.512229883428631, -9.489389417196321 ], [ -77.510318697486753, -9.486308225556797 ], [ -77.507292131415852, -9.483525646700798 ], [ -77.504540554353639, -9.481978156909463 ], [ -77.504255976215973, -9.479188257170108 ], [ -77.503232762510208, -9.475568821543277 ], [ -77.497239636060954, -9.473793035105359 ], [ -77.49422076948531, -9.46901523232691 ], [ -77.491975573768684, -9.464385846358994 ], [ -77.491769099047701, -9.461948978551959 ], [ -77.492516666915492, -9.457157030864266 ], [ -77.491116423710366, -9.455786498297016 ], [ -77.489413089782317, -9.454298065182172 ], [ -77.488119961862594, -9.451006091425313 ], [ -77.486534974161316, -9.449156671660432 ], [ -77.484902045380409, -9.449048185166134 ], [ -77.483125847253632, -9.445819613287881 ], [ -77.481890692839841, -9.442167056647861 ], [ -77.480364082237372, -9.440017072168359 ], [ -77.47878133800009, -9.438467683568206 ], [ -77.476308647400174, -9.439265381448195 ], [ -77.474961705133239, -9.436874010856513 ], [ -77.474042180113599, -9.435079838552042 ], [ -77.471818468556762, -9.435189104455617 ], [ -77.469884495976714, -9.435241102524515 ], [ -77.4688067855854, -9.436016944506719 ], [ -77.467454993747822, -9.436333740823272 ], [ -77.465650962112534, -9.436639297927172 ], [ -77.464861328574614, -9.436104636504808 ], [ -77.462858145823134, -9.434393039465817 ], [ -77.462092593428679, -9.432991634484949 ], [ -77.460297459970434, -9.432910407020529 ], [ -77.459531921316625, -9.431508992883892 ], [ -77.457619766336052, -9.428239892725912 ], [ -77.455801433296017, -9.424876333747193 ], [ -77.456249110615204, -9.42140317851829 ], [ -77.455362672915157, -9.416251196870917 ], [ -77.452411161672728, -9.412895487209596 ], [ -77.449688242782827, -9.410340951561864 ], [ -77.447968176408153, -9.410540165591215 ], [ -77.445792750383248, -9.409249165923256 ], [ -77.444402869840019, -9.409642946505642 ], [ -77.441498956333589, -9.409278914154697 ], [ -77.440024154960724, -9.408597655737537 ], [ -77.438400820277593, -9.408800954899505 ], [ -77.437155429965856, -9.407733949059548 ], [ -77.436579761346593, -9.408390976723183 ], [ -77.435146609460162, -9.408131969702481 ], [ -77.432446590571999, -9.40926462975392 ], [ -77.430589529446024, -9.409239016981019 ], [ -77.428232533773098, -9.409639401330423 ], [ -77.426876204615837, -9.409303001409 ], [ -77.425558828036969, -9.409004742810566 ], [ -77.423700688840881, -9.408825440155624 ], [ -77.421688082964238, -9.408685602895105 ], [ -77.420678036986999, -9.408077892736912 ], [ -77.419552211282053, -9.407509388124993 ], [ -77.418472015309305, -9.407939362893842 ] ] ] ] } }
]
}
