{"type":"FeatureCollection", "features":[
{"type":"Feature","geometry":{"type":"Polygon","coordinates":[[[-77.32633714462814,-9.597261253476336],[-77.32629428927581,-9.597364333744833],[-77.32630769800585,-9.597464834923201],[-77.32621918281475,-9.597530950901163],[-77.32609841643409,-9.597530979099279],[-77.32610919601987,-9.597446347962963],[-77.32614407630878,-9.59735378875409],[-77.32612260477686,-9.597308816261274],[-77.32605284419006,-9.597298250249953],[-77.32599649232431,-9.597359065520951],[-77.32599114634226,-9.597464863606408],[-77.32603671861324,-9.597549498021575],[-77.32609307046103,-9.597642019007132],[-77.32610113324493,-9.597745234822424],[-77.32609228171326,-9.597893751662397],[-77.32600376636046,-9.597917519117503],[-77.32585092384494,-9.597896393284254],[-77.32573024472663,-9.597827618409832],[-77.32564707509538,-9.597801164479986],[-77.3254539179955,-9.597705915068365],[-77.32533858447297,-9.59757369063134],[-77.32524472253625,-9.597407150325884],[-77.3252025678968,-9.59721365211774],[-77.32511405186128,-9.597121024277579],[-77.32506576240216,-9.597028469371635],[-77.32505778718603,-9.596951798332816],[-77.3251006429965,-9.596951801926076],[-77.32514630325745,-9.59697828311081],[-77.32518381301402,-9.597012616442491],[-77.3252293856084,-9.597007312564473],[-77.3252106307346,-9.596912105732997],[-77.32524822811284,-9.596877720352929],[-77.32526698297765,-9.596835400135989],[-77.32523744844622,-9.596748198021329],[-77.32523210243721,-9.596663554182834],[-77.32527767500464,-9.596570975417638],[-77.32533131039192,-9.596557732929826],[-77.3254064174189,-9.596510174591549],[-77.32546005275228,-9.596475799775668],[-77.32546548639193,-9.59638581399754],[-77.32550027922986,-9.596319709832423],[-77.32558616578874,-9.596330289327456],[-77.32563980103228,-9.596393755311263],[-77.32564514703229,-9.596473074287095],[-77.32555391451832,-9.596531268354944],[-77.32552981369841,-9.596618567487655],[-77.32554593933811,-9.596645038251928],[-77.32561832941052,-9.596608028740201],[-77.3257363794744,-9.59657362226769],[-77.32587046736768,-9.59661593501963],[-77.3259696747834,-9.596676759588192],[-77.32605012737922,-9.59677200069938],[-77.32607431573096,-9.596875145898105],[-77.32607694490217,-9.596983567773862],[-77.32609841643409,-9.597102587012142],[-77.32615748505678,-9.597197787016423],[-77.32625669222995,-9.597144879120796],[-77.32629691843803,-9.597163338754283],[-77.32633714462814,-9.597261253476336]]]},"properties":{"Nombres":"Pumahuacanca"}},
{"type":"Feature","geometry":{"type":"Polygon","coordinates":[[[-77.30018053425155,-9.601079788128002],[-77.3001751870927,-9.601249060174306],[-77.30010541100098,-9.601373348283255],[-77.30004589091199,-9.601400177843638],[-77.29997891981871,-9.601400191659728],[-77.29993061996609,-9.601379016868295],[-77.2998944169708,-9.601418690810103],[-77.29981306977872,-9.601564014750096],[-77.2997325991088,-9.601672515327254],[-77.29966957248202,-9.601688316136146],[-77.29962398991634,-9.601746528071484],[-77.29962127249463,-9.601828542262664],[-77.29958375452748,-9.601910514610319],[-77.29946033084936,-9.6019343099132],[-77.29945498365458,-9.601844342667315],[-77.29942553025,-9.601738589874914],[-77.29936513322562,-9.60162004285403],[-77.29923907954085,-9.601524853297155],[-77.29919884401724,-9.601411130543756],[-77.2990969840921,-9.601323826479296],[-77.29897355989296,-9.601342380265207],[-77.29887967677396,-9.601461364828518],[-77.29878316379207,-9.601437570918026],[-77.29872145154427,-9.601345016039032],[-77.29869725753314,-9.601236547217319],[-77.29869725753314,-9.601130805608944],[-77.29865973926952,-9.60098798271345],[-77.29860609162924,-9.600940403237814],[-77.29860880907789,-9.600898074352132],[-77.29863563289803,-9.600810798395957],[-77.29875151874073,-9.600647288916436],[-77.29881454586159,-9.600470090064201],[-77.29885478151995,-9.60028763751384],[-77.298814896501,-9.600134412298036],[-77.29878544293472,-9.59994663236075],[-77.29876913828774,-9.599748108967923],[-77.29870742603096,-9.599596072627483],[-77.29864974607793,-9.599466481996972],[-77.29858137163653,-9.59939772587039],[-77.29849292309144,-9.599328974639626],[-77.2984057017259,-9.599294544712102],[-77.29838694254917,-9.599261487212704],[-77.29839097489784,-9.59916629688328],[-77.29835336886883,-9.599093606504061],[-77.29830515600007,-9.599084332413849],[-77.29826492016205,-9.599134587620373],[-77.29823809625208,-9.59920197855027],[-77.29819382802945,-9.599236360777251],[-77.29811870351226,-9.599179500986079],[-77.29805839347175,-9.599208629847313],[-77.29799396338004,-9.599239020293549],[-77.29795109762522,-9.599211225771871],[-77.29792155618574,-9.59927211005145],[-77.29784914895549,-9.599302537607091],[-77.29777270930472,-9.599343464465159],[-77.29769092233342,-9.599326290464575],[-77.29763052441072,-9.5992959326721],[-77.29757021412766,-9.599256260490987],[-77.2975540846252,-9.59919934085405],[-77.2975197217659,-9.599125356451665],[-77.29750359225446,-9.599040650413821],[-77.29748755040961,-9.598912437798957],[-77.29749789433045,-9.598848346623646],[-77.29746432039857,-9.598747853323502],[-77.2975206860265,-9.598725400337218],[-77.29756626940964,-9.598642066637666],[-77.2976306120773,-9.598594452289431],[-77.29772721366902,-9.598503192565481],[-77.29779059197726,-9.598420352032038],[-77.29784020761923,-9.598319863879242],[-77.29791401742506,-9.598247143496295],[-77.29798370716173,-9.59824448481543],[-77.29802929035623,-9.598265640984788],[-77.29810844730294,-9.598305262114641],[-77.29820636339042,-9.598333099521891],[-77.29826535845906,-9.59838728100401],[-77.29830287684842,-9.598385925922354],[-77.29836195952976,-9.59839260768127],[-77.29841955195992,-9.598433592786101],[-77.29840763023813,-9.598490637208014],[-77.29839956554979,-9.598562050569173],[-77.29841297747782,-9.59865730427474],[-77.29850414352545,-9.598651947297308],[-77.29856848568107,-9.598696926383758],[-77.29864895714152,-9.598789507304913],[-77.2987133868739,-9.598927000639556],[-77.29877238168201,-9.599072445807195],[-77.29885548278978,-9.599149151547934],[-77.29891456518364,-9.599255000226508],[-77.29900301340533,-9.599305199135614],[-77.29909961386518,-9.599374002810023],[-77.29920419122101,-9.599466562872296],[-77.29928737968095,-9.599548513543603],[-77.29935172140537,-9.599519450483964],[-77.29944288672537,-9.599500948728473],[-77.29948049239505,-9.599516818033905],[-77.2995394868169,-9.59954853806761],[-77.29964143401338,-9.59952735758984],[-77.29969508117757,-9.59954848019814],[-77.29972453451029,-9.59962519520051],[-77.29972725193198,-9.599712483562419],[-77.29974066370731,-9.599805076790492],[-77.29981035235703,-9.59988436457682],[-77.299928428499,-9.599894979681071],[-77.29999014010899,-9.599892358001814],[-77.29997672835164,-9.599966403435737],[-77.29991229931994,-9.600127660030356],[-77.29993649308854,-9.600222899614407],[-77.29988547579624,-9.60032866335727],[-77.29986136967626,-9.600431847093724],[-77.29981306977872,-9.600540290789558],[-77.29978624622807,-9.600675154674516],[-77.29985330508674,-9.600730635336133],[-77.2999712935262,-9.600664541393845],[-77.30004369945388,-9.600714812500549],[-77.30001424620201,-9.600817964993595],[-77.30000618161249,-9.600910512443523],[-77.30005176402544,-9.600997810138928],[-77.30012688731195,-9.600981875166648],[-77.3001751870927,-9.600992483901845],[-77.30018053425155,-9.601079788128002]]]},"properties":{"Nombres":"Huantsan alto"}},
{"type":"Feature","geometry":{"type":"Polygon","coordinates":[[[-77.32256362206704,-9.627921260764172],[-77.32252874071811,-9.627970154214557],[-77.32246274656967,-9.627948813279712],[-77.32240910986187,-9.627927597785613],[-77.32238632301672,-9.627893211183835],[-77.32237966224244,-9.627865498480714],[-77.32234881235286,-9.627846959283442],[-77.32230989941884,-9.627860164230658],[-77.32230586789662,-9.627891891468852],[-77.32232602549871,-9.62794082889177],[-77.32230315099595,-9.627972606282906],[-77.32225354574747,-9.627959363857977],[-77.32222418573176,-9.62794096311804],[-77.32216651738496,-9.627903950983232],[-77.32213435281095,-9.627868217797861],[-77.32205118061951,-9.62782460009924],[-77.32199622909255,-9.627755895329342],[-77.32200026062374,-9.627721504846843],[-77.32202033064009,-9.627642183095215],[-77.3220176137394,-9.627541541914411],[-77.32201095294717,-9.627479455904577],[-77.32200955067701,-9.62741332033436],[-77.32201629910888,-9.627328677484012],[-77.32198141758929,-9.627266543629908],[-77.32194390679966,-9.627177928923446],[-77.32192646603538,-9.62710920124651],[-77.32194653606071,-9.627097294957768],[-77.32201095294717,-9.627072135670925],[-77.32205784140275,-9.62706422030953],[-77.32212225823532,-9.627073517504412],[-77.32215573743986,-9.627109215790234],[-77.32219596505828,-9.627152821406513],[-77.32220937426443,-9.627210996079734],[-77.32223084651501,-9.627278458533493],[-77.32226572795376,-9.627361732486095],[-77.32230192401404,-9.627413261934883],[-77.32235827766743,-9.627462209930972],[-77.32240130974535,-9.627527226388993],[-77.32243890803088,-9.62759204137286],[-77.32247782092895,-9.627700433954555],[-77.32250998541313,-9.627783774112993],[-77.32252611146606,-9.62786568717184],[-77.32256362206704,-9.627921260764172]]]},"properties":{"Nombres":"Tucto3"}},
{"type":"Feature","geometry":{"type":"Polygon","coordinates":[[[-77.32289841243244,-9.635281749706056],[-77.32287431106457,-9.635309571823978],[-77.32278851015107,-9.635346590417674],[-77.32270262153504,-9.635402084338423],[-77.32258465604754,-9.635439157495789],[-77.32251489334072,-9.635410015330505],[-77.32243443831047,-9.63530689492528],[-77.32237273854925,-9.635195814269846],[-77.32234854943394,-9.635116507502117],[-77.32234592018187,-9.635023934144778],[-77.32232041642706,-9.634881152679585],[-77.32232173105757,-9.634729128879625],[-77.3223325109937,-9.634583699387587],[-77.32236467551381,-9.634558590675896],[-77.32238483310691,-9.634578399920299],[-77.32244784748067,-9.634608789387372],[-77.3224921065225,-9.634670944810026],[-77.3225430262937,-9.634726438919422],[-77.32261147436103,-9.634819041184548],[-77.32266511097899,-9.634875884806045],[-77.32272812520003,-9.634899698731003],[-77.32275091198231,-9.63494857196031],[-77.32277641563832,-9.635050401297825],[-77.32281261153692,-9.63514821610027],[-77.32287834256881,-9.635220990984005],[-77.32289841243244,-9.635281749706056]]]},"properties":{"Nombres":"Tucto4"}},
{"type":"Feature","geometry":{"type":"Polygon","coordinates":[[[-77.31774788072488,-9.645120914511741],[-77.31769546888795,-9.64515592732012],[-77.31767399580194,-9.645229966879063],[-77.31771422496547,-9.645272252582728],[-77.31769809823881,-9.645330424561005],[-77.31767399580194,-9.64543092192153],[-77.31761501052493,-9.645536699139125],[-77.317550591222,-9.645634532572627],[-77.31747819613699,-9.645708594203175],[-77.31742455713848,-9.645793176120797],[-77.31734138158734,-9.645856681010638],[-77.31722604005182,-9.645853974916694],[-77.31712147881177,-9.645893625556205],[-77.3170195468597,-9.645909565514135],[-77.31695784424184,-9.645856658094615],[-77.31692296121308,-9.645764123733143],[-77.31693637102109,-9.645692697813537],[-77.31691358310694,-9.645587127477954],[-77.31683584123138,-9.645554102506551],[-77.31682909250306,-9.645501240380089],[-77.3168720389805,-9.645481359521991],[-77.31690823671165,-9.645407367906136],[-77.31694040272296,-9.64538483867085],[-77.31699947598096,-9.645351821784285],[-77.3170423347469,-9.645289648952279],[-77.31709062753878,-9.645231507435875],[-77.31710105737449,-9.645162135514166],[-77.31710508907636,-9.645107926193257],[-77.31710780609382,-9.645023283531554],[-77.31711586948859,-9.64494400088359],[-77.31706485969723,-9.644858027242032],[-77.31699114963135,-9.644863362084976],[-77.31694820319882,-9.644843535035964],[-77.31692541529365,-9.644797236225546],[-77.31695223490968,-9.644733801601927],[-77.31698711792947,-9.644715285976448],[-77.31704610352088,-9.644702078235472],[-77.31707160841657,-9.644633267105046],[-77.31712656226118,-9.64459626796886],[-77.31717213799966,-9.644625349569727],[-77.31724058922006,-9.644674261309811],[-77.31729685766825,-9.644728464144885],[-77.31735724542203,-9.64474436094775],[-77.31743770395572,-9.644756258819276],[-77.31752491112789,-9.644786638189286],[-77.31757320371315,-9.644797257201208],[-77.31761203058856,-9.644847482035694],[-77.31767776454896,-9.644856751454666],[-77.31769424185215,-9.644914636618838],[-77.31769424185215,-9.644975488927374],[-77.31773184165583,-9.645046895856595],[-77.31774788072488,-9.645120914511741]]]},"properties":{"Nombres":"Capac cocha"}},
{"type":"Feature","geometry":{"type":"Polygon","coordinates":[[[-77.30685123382725,-9.664848787046465],[-77.30681003673797,-9.6649389234541],[-77.30680425161448,-9.665021554150076],[-77.30680293681328,-9.665129996516404],[-77.30675463977238,-9.66525825269956],[-77.306764018687,-9.665305812430226],[-77.30675867183359,-9.665423513579473],[-77.30673053507175,-9.665509391379775],[-77.3066353433679,-9.665621745055766],[-77.30653988863735,-9.665721599483062],[-77.30643531783022,-9.665827358833162],[-77.30634810238458,-9.665900126817837],[-77.3062676362152,-9.66596090668623],[-77.30618585518175,-9.665938457284224],[-77.30613624307914,-9.665992643931657],[-77.30609600992709,-9.666001884900984],[-77.30597259312108,-9.666015101894608],[-77.30592973028577,-9.665971455764309],[-77.30588677979287,-9.665871020791778],[-77.30588301065956,-9.665790114888097],[-77.30591517971617,-9.665623538982405],[-77.30597417088612,-9.665467538583227],[-77.30608680626479,-9.665412038266473],[-77.3061995291843,-9.665404084286502],[-77.30629340642831,-9.665332730708226],[-77.30634433327822,-9.665232215965299],[-77.30638184907146,-9.665094732296527],[-77.30645968555757,-9.665039183560578],[-77.30645696828859,-9.664925512118948],[-77.30640332423258,-9.664840916007945],[-77.30644355727682,-9.664758903640344],[-77.30651332958664,-9.66467432892721],[-77.30656697359774,-9.664565922888753],[-77.30663665817809,-9.664579094777967],[-77.3066849552639,-9.66468488969237],[-77.30676813839683,-9.664716632722948],[-77.30684860422484,-9.664774751925199],[-77.30685123382725,-9.664848787046465]]]},"properties":{"Nombres":"Orococha"}},
{"type":"Feature","geometry":{"type":"Polygon","coordinates":[[[-77.30128686533628,-9.603331008378959],[-77.30126503860151,-9.60346523062426],[-77.30124759474701,-9.603529978189567],[-77.30123961791391,-9.603684765018693],[-77.30122077152873,-9.603835488462364],[-77.30120473018694,-9.604057617838125],[-77.30116449533708,-9.60433526020587],[-77.30114301921476,-9.60450452400564],[-77.3010893727243,-9.604755795411936],[-77.30100618554896,-9.604948813883787],[-77.30093378021417,-9.60517626131298],[-77.30088898707,-9.605233423297415],[-77.30076293502916,-9.605431842252106],[-77.30061540662345,-9.605545515795795],[-77.30048663688244,-9.605683014619144],[-77.30051889507887,-9.605754432031704],[-77.3005081131305,-9.605878750297098],[-77.30039012523004,-9.606018895638124],[-77.30027204955519,-9.60600303589975],[-77.30020507858768,-9.605918433464605],[-77.30011654361569,-9.605833780400413],[-77.29999241923369,-9.605798477049921],[-77.29994131431073,-9.605733266510885],[-77.29986890832016,-9.605653954146652],[-77.29970796700727,-9.605595736866338],[-77.29961136705047,-9.6055640333796],[-77.29960330244299,-9.605487356501731],[-77.29953624344058,-9.605421221928642],[-77.29948803105691,-9.605392144657655],[-77.29949066082101,-9.605287659702531],[-77.29953221112785,-9.605148841990648],[-77.29952256865651,-9.604984996900537],[-77.29955745687754,-9.60489244121306],[-77.29961382149936,-9.604802512253372],[-77.29963792766425,-9.604651733365682],[-77.2995923450896,-9.604490383939162],[-77.29964187231039,-9.604360682258916],[-77.29968473744539,-9.604217921104633],[-77.29972769022001,-9.604127994678194],[-77.29979474911461,-9.60413330949769],[-77.29984033160842,-9.604244322815411],[-77.30000933732221,-9.604276130425873],[-77.30008174322295,-9.604204684294173],[-77.3001568664825,-9.60415447146118],[-77.30022655488966,-9.60415971728108],[-77.30024803117367,-9.604130644977776],[-77.30028020177538,-9.603982578651902],[-77.30029896064666,-9.603934935512662],[-77.30041703629458,-9.603868843178358],[-77.30046542361616,-9.603815309686984],[-77.30046814101091,-9.60373071411497],[-77.30049759415498,-9.60368047233826],[-77.30062101673715,-9.603542944238814],[-77.3006934222606,-9.60355619437129],[-77.30075241607159,-9.603450389449653],[-77.30077117487102,-9.603348584330718],[-77.30078458652956,-9.603254651355229],[-77.30083560343557,-9.603132992983426],[-77.30093211471966,-9.603052373705202],[-77.30107026334835,-9.60306423322765],[-77.30119570145358,-9.603130033241177],[-77.3012681066177,-9.603214667261085],[-77.30128686533628,-9.603331008378959]]]},"properties":{"Nombres":"Huantsan bajo"}},
{"type":"Feature","geometry":{"type":"Polygon","coordinates":[[[-77.33049938498424,-9.570397587574796],[-77.33039746471027,-9.570484905518228],[-77.33038729897028,-9.570604133498032],[-77.33024471560157,-9.570700598959053],[-77.33014963070741,-9.570653761294212],[-77.32995113526117,-9.570733111504468],[-77.32967218944692,-9.570696048372302],[-77.32933417598018,-9.570505683155492],[-77.32902841184348,-9.570336385309574],[-77.32866366722679,-9.570262308407665],[-77.32830961321774,-9.570251752951549],[-77.32784828974569,-9.570336383935151],[-77.32733867592519,-9.570278174353398],[-77.326834405814,-9.57011420062454],[-77.32669488543989,-9.569955522796658],[-77.3264320573512,-9.56991323048139],[-77.32608877615463,-9.569854997363777],[-77.32594653808036,-9.569795526080242],[-77.32584461382685,-9.569636821222053],[-77.325651544699,-9.569488729240295],[-77.325651544699,-9.569430509875888],[-77.32557643782472,-9.569330015731328],[-77.32555496618501,-9.569192492204309],[-77.32557100418506,-9.569076146190616],[-77.32549055125686,-9.568880392267879],[-77.32531351957212,-9.56897034311951],[-77.32506146805086,-9.569091960528137],[-77.32505068836626,-9.569261230068141],[-77.32490581983619,-9.569329993749554],[-77.32470196942475,-9.569351171864755],[-77.32470196942475,-9.569266504688029],[-77.32449811866296,-9.569229546838413],[-77.3242567575068,-9.569229547269604],[-77.32414413965427,-9.569155449257286],[-77.32401478236115,-9.568801450809044],[-77.32374125606505,-9.568478816473007],[-77.3232852606267,-9.568521137534363],[-77.32317798793875,-9.568267177111094],[-77.32318333404656,-9.567870494448558],[-77.32326317507832,-9.567486540185962],[-77.32343758065511,-9.567301434290732],[-77.32366281760888,-9.567237963752467],[-77.3238130337739,-9.567118916046574],[-77.32382135962945,-9.566849344439786],[-77.32390715977938,-9.566817660060215],[-77.32393932386829,-9.566643030066299],[-77.32369261546347,-9.566447309345293],[-77.32365501758218,-9.566161659484937],[-77.32325265815095,-9.565881361355853],[-77.32305029475673,-9.565652680512825],[-77.32267746842861,-9.565467533465771],[-77.32253242166381,-9.5652284088362],[-77.32221051360669,-9.565032748230452],[-77.32197984003086,-9.56473649515954],[-77.32181358300015,-9.564651859558596],[-77.3217331274848,-9.56453637243313],[-77.32137905243722,-9.564219023514731],[-77.32104653642645,-9.564028546933777],[-77.32083189920677,-9.563848736292734],[-77.32072997048863,-9.563700607587846],[-77.32069245930374,-9.563494310857271],[-77.32059053045985,-9.563208631613021],[-77.32057677049752,-9.563060760176647],[-77.32061883916822,-9.562899478474117],[-77.32072155676886,-9.56284646435271],[-77.3208717767158,-9.562841189759771],[-77.32095757903068,-9.562872959973367],[-77.32104881513791,-9.562804220636298],[-77.32120972706691,-9.562730148738007],[-77.32133312777512,-9.562513235205364],[-77.32149938548855,-9.562391541951976],[-77.3216227859003,-9.562455051557972],[-77.32188562482268,-9.562661333681943],[-77.3224109503392,-9.56302640081179],[-77.32271129803898,-9.563245959397854],[-77.32310831323089,-9.563497273572942],[-77.32335002733511,-9.563715920449843],[-77.32367193224812,-9.563964551653621],[-77.32390794854511,-9.56420253385073],[-77.32392407440939,-9.564371869434874],[-77.32395089241744,-9.56471566401862],[-77.32400847224424,-9.564823405950552],[-77.32412109022256,-9.565114311045152],[-77.32430346977581,-9.565341754647521],[-77.32453413875227,-9.565484569071902],[-77.32474342312676,-9.565474068718446],[-77.32497943725882,-9.565553374911252],[-77.32519397921216,-9.565463477841757],[-77.32530668368925,-9.565310031209203],[-77.32548362775232,-9.565257171175814],[-77.32575189160968,-9.56527828431587],[-77.3259718657564,-9.565389350346733],[-77.32619709782333,-9.565590430299942],[-77.32650830297484,-9.565669762238464],[-77.32673896758548,-9.565876033277222],[-77.32706077551637,-9.56607177460558],[-77.32728074719272,-9.56633628616407],[-77.32751141028521,-9.566563767154323],[-77.3278654667197,-9.566891689180734],[-77.32818735917307,-9.567124446830048],[-77.32855210528098,-9.567436547655811],[-77.32873991139516,-9.5677169293372],[-77.32895979226981,-9.568097799162402],[-77.32904620209733,-9.568229730784577],[-77.32919904042672,-9.568391141036024],[-77.32939753714855,-9.568615946897259],[-77.32951014992562,-9.568716408585686],[-77.32957727935595,-9.568824842121575],[-77.3295799084463,-9.56893863375779],[-77.32960137934042,-9.569002052840556],[-77.3297140795595,-9.569152837001356],[-77.32982888294127,-9.569310519073694],[-77.32994421201714,-9.569522116178858],[-77.33003807017195,-9.569614735350276],[-77.33007294928406,-9.569754917917486],[-77.33022044047256,-9.569860659085688],[-77.33021509468814,-9.569969084994879],[-77.33027407358709,-9.57010400170976],[-77.33041358968522,-9.570193896281937],[-77.3304242812361,-9.570273304289799],[-77.33049938498424,-9.570397587574796]]]},"properties":{"Nombres":"Tararhua"}}
]}
